ORBITAL FACTORY 2 (OF-2)
1 45113U 19071C   22173.02373235  .00023943  00000+0  49473-3 0  9992
2 45113  51.6399  36.8778 0010038 183.8084 176.2828 15.45650117134087
M2 PATHFINDER           
1 45727U 20037E   22173.44940392  .00001698  00000+0  17262-3 0  9991
2 45727  97.7346 348.8194 0013059  25.7799 334.4087 14.92040125107574
NETSAT-4                
1 46504U 20068U   22173.56735180  .00003507  00000+0  26170-3 0  9998
2 46504  97.7250 113.3461 0011072 314.9716  45.0584 15.03468804 94819
NETSAT-3                
1 46505U 20068V   22173.58284687  .00003950  00000+0  29461-3 0  9990
2 46505  97.7233 113.2829 0010875 323.3634  36.6869 15.03414251 94821
NETSAT-1                
1 46506U 20068W   22173.59926189  .00002270  00000+0  17161-3 0  9990
2 46506  97.7257 113.2340 0009785 339.6216  20.4598 15.03348993 94829
NETSAT-2                
1 46507U 20068X   22173.54228398  .00002782  00000+0  20933-3 0  9992
2 46507  97.7252 113.1689 0008815 348.6629  11.4386 15.03337985 94768
SPOC                    
1 46921U 98067RR  22173.54165517  .02074355  11914-4  90323-3 0  9997
2 46921  51.6180 258.8663 0012203 330.3711  29.6615 16.21604309 92843
NEUTRON-1               
1 46923U 98067RT  22173.34610367  .01775468  11848-4  93639-3 0  9996
2 46923  51.6187 260.5837 0013751 337.4648  22.5765 16.19122250 92835
DESCENT                 
1 46927U 98067RX  22167.78829181  .02162638  11925-4  89836-3 0  9997
2 46927  51.6205 288.7123 0013771 316.3870  43.6060 16.22123932 91872
SAI-1 NANOCONNECT-2     
1 47701U 21015C   22173.48008058  .00011184  00000+0  41826-3 0  9994
2 47701  97.4228 250.3840 0012686  80.6384 279.6289 15.27423156 72982
TSURU                   
1 47927U 98067SD  22173.41024400  .00590965  16901-3  10281-2 0  9997
2 47927  51.6270 274.6280 0012753 330.1557  29.8724 16.01458351 72592
MAYA-2                  
1 47929U 98067SF  22173.55002877  .00557899  14866-3  10321-2 0  9990
2 47929  51.6264 274.0626 0012384 329.9702  30.0597 16.00413820 72574
GUARANISAT-1            
1 47931U 98067SH  22173.51838337  .00598904  17435-3  10229-2 0  9991
2 47931  51.6247 273.8552 0012698 331.2285  28.8024 16.01773017 72616
BEESAT-6                
1 47957U 21022AB  22172.97618147  .00007150  00000+0  45795-3 0  9991
2 47957  97.5295  72.4930 0021745 127.0071 290.3898 15.08656308 68480
SMOG-1                  
1 47964U 21022AJ  22173.47655882  .00007013  00000+0  43246-3 0  9999
2 47964  97.5301  74.0190 0020073 116.2072 244.1224 15.10081675 67645
MMSATS-1                
1 47976U 98067SJ  22173.58126056  .00024766  00000+0  31401-3 0  9997
2 47976  51.6414 299.1831 0000991  25.0896 335.0142 15.59298080 71067
BCCSAT-1                
1 48041U 21022AK  22173.46460430  .00006081  00000+0  38472-3 0  9997
2 48041  97.5311  73.6239 0016816 113.9946 246.3046 15.09246045 67598
BEESAT-5                
1 48083U 21022AM  22173.51171472  .00006997  00000+0  44641-3 0  9995
2 48083  97.5267  73.0167 0021248 125.1781 359.4073 15.08815866 67694
BEESAT-7                
1 48084U 21022AN  22173.51503561  .00006485  00000+0  41500-3 0  9997
2 48084  97.5262  73.0280 0021801 124.8770   1.4782 15.08720401 67281
BEESAT-8                
1 48085U 21022AP  22173.51551247  .00007090  00000+0  45438-3 0  9999
2 48085  97.5252  73.0256 0021222 124.9008   0.6518 15.08647448 67845
RAMSAT                  
1 48850U 98067SL  22173.37069775  .00078381  00000+0  60526-3 0  9992
2 48850  51.6365 292.5140 0001984 347.4633  12.6315 15.71224578 58102
BD-28                   
1 48867U 98067SN  22173.53487558  .00105996  00000+0  67980-3 0  9995
2 48867  51.6305 289.0479 0003141 309.6812  50.3911 15.75437756 56912
BINAR-1                 
1 49272U 98067SR  22173.51392717  .00085483  00000+0  65927-3 0  9993
2 49272  51.6344 295.6907 0006203 315.8980  44.1522 15.71199142 40464
MAYA-3                  
1 49273U 98067SS  22173.49833040  .00205342  00000+0  95001-3 0  9994
2 49273  51.6295 291.0412 0009482 318.9057  41.1230 15.82297325 40526
MAYA-4                  
1 49274U 98067ST  22173.52582335  .00193355  00000+0  93363-3 0  9996
2 49274  51.6327 291.2310 0008824 316.6744  43.3564 15.81420646 40526
CUAVA-1                 
1 49275U 98067SU  22173.37633604  .00131263  00000+0  81210-3 0  9994
2 49275  51.6345 293.7849 0006432 317.3510 141.6655 15.76145382 40420
BEIJING 1               
1 28890U 05043A   22173.47217699  .00000265  00000+0  62908-4 0  9990
2 28890  98.1192 295.7848 0015846 154.6341 205.5644 14.61457678887873
HJ-1A                   
1 33320U 08041A   22173.43070586  .00000402  00000+0  62593-4 0  9996
2 33320  97.6759 206.2562 0020019 212.6946 147.3030 14.77854101743124
HJ-1B                   
1 33321U 08041B   22173.44498291  .00000797  00000+0  11705-3 0  9990
2 33321  97.6935 209.8434 0032867 232.7065 127.1151 14.77748447743122
YAOGAN 4                
1 33446U 08061A   22173.52524915  .00000487  00000+0  75349-4 0  9993
2 33446  97.8174 113.4997 0017551 115.4538 244.8491 14.77386120730346
DEIMOS-1                
1 35681U 09041A   22173.49434563  .00000331  00000+0  60070-4 0  9993
2 35681  97.7143  24.3135 0001554 151.8663 208.2651 14.72060200692518
UK-DMC 2                
1 35683U 09041C   22173.45428372  .00000488  00000+0  86187-4 0  9992
2 35683  97.6992 346.2641 0001069  98.0464 262.0880 14.71420726692245
RISAT 1                 
1 38248U 12017A   22173.49541527  .00002989  00000+0  17791-3 0  9993
2 38248  97.5519 184.8144 0002562 222.0736 138.0298 15.11997141559605
DMC3-FM1                
1 40715U 15032A   22173.46248942  .00000462  00000+0  64562-4 0  9990
2 40715  97.8472  60.1826 0006814 132.8697 227.3085 14.82129645374030
DMC3-FM2                
1 40716U 15032B   22173.48500729  .00000446  00000+0  62538-4 0  9990
2 40716  97.8512  60.8490 0008687 137.8012 222.3854 14.82121061374040
DMC3-FM3                
1 40717U 15032C   22173.44051100  .00000422  00000+0  59534-4 0  9997
2 40717  97.8546  61.7178 0010678 137.6208 222.5812 14.82148683374033
NOAA 15                 
1 25338U 98030A   22173.54148739  .00000164  00000+0  86760-4 0  9998
2 25338  98.6432 203.0106 0009162 284.3806  75.6357 14.26141405253995
DMSP 5D-3 F15 (USA 147) 
1 25991U 99067A   22173.56981626  .00000065  00000+0  55742-4 0  9992
2 25991  99.0520 165.2333 0010286 168.2515 299.5838 14.16546616164512
METEOSAT-8 (MSG-1)      
1 27509U 02040B   22172.78035594  .00000127  00000+0  00000+0 0  9992
2 27509   8.0464  50.6445 0001414  12.2723 169.3007  1.00272432 72655
DMSP 5D-3 F16 (USA 172) 
1 28054U 03048A   22173.57038425  .00000005  00000+0  26859-4 0  9991
2 28054  98.9876 164.4072 0006499 309.5940 215.0013 14.13675361963748
NOAA 18                 
1 28654U 05018A   22173.58879358  .00000137  00000+0  97985-4 0  9999
2 28654  98.9489 244.0208 0013398 320.2685  39.7505 14.12744756880796
METEOSAT-9 (MSG-2)      
1 28912U 05049B   22171.74325331  .00000119  00000+0  00000+0 0  9990
2 28912   6.0284  66.2950 0001297  12.4825 143.4361  1.00276663 60428
EWS-G1 (GOES 13)        
1 29155U 06018A   22173.61263153  .00000038  00000+0  00000+0 0  9998
2 29155   0.6154  96.9401 0003416  84.9911  10.6294  1.00269844 58914
DMSP 5D-3 F17 (USA 191) 
1 29522U 06050A   22173.59638830 -.00000001  00000+0  22118-4 0  9997
2 29522  98.7659 188.5556 0008732 244.2933 115.7339 14.14102218806637
FENGYUN 3A              
1 32958U 08026A   22173.47510342  .00000080  00000+0  58528-4 0  9993
2 32958  98.5026 135.9016 0009097  16.4924 343.6547 14.18723516729047
FENGYUN 2E              
1 33463U 08066A   22173.18938345 -.00000203  00000+0  00000+0 0  9999
2 33463   5.9164  65.3020 0004189  15.6069 343.8197  1.00262928 49481
NOAA 19                 
1 33591U 09005A   22173.51983008  .00000168  00000+0  11561-3 0  9995
2 33591  99.1471 207.7633 0014140 169.6781 190.4683 14.12579457688907
GOES 14                 
1 35491U 09033A   22173.61241458 -.00000092  00000+0  00000+0 0  9993
2 35491   0.3332  95.4405 0012444 115.7151 175.4119  1.00270338 47562
METEOR-M 1              
1 35865U 09049A   22173.46098098  .00000067  00000+0  49355-4 0  9990
2 35865  98.5281 143.7699 0001870 179.8574 180.2605 14.22339932662394
DMSP 5D-3 F18 (USA 210) 
1 35951U 09057A   22173.57195705  .00000224  00000+0  14155-3 0  9994
2 35951  98.7218 152.8320 0012339  73.8787 286.3743 14.13514636653831
GOES 15                 
1 36411U 10008A   22173.60832753  .00000055  00000+0  00000+0 0  9991
2 36411   0.3056 102.2871 0002088   9.7109 249.3041  1.00269334 45073
COMS 1                  
1 36744U 10032A   22173.48175323 -.00000346  00000+0  00000+0 0  9990
2 36744   1.0831  92.7148 0000825   3.3322 116.1572  1.00270597 44055
FENGYUN 3B              
1 37214U 10059A   22173.44548917  .00000001  00000+0  24979-4 0  9994
2 37214  99.0907 179.5075 0021930 344.1484  15.8999 14.14257664601660
SUOMI NPP               
1 37849U 11061A   22173.56519005  .00000047  00000+0  42901-4 0  9996
2 37849  98.7328 112.0462 0001059  84.7827  19.8234 14.19529869551919
FENGYUN 2F              
1 38049U 12002A   22173.20046418 -.00000361  00000+0  00000+0 0  9998
2 38049   3.8048  79.6775 0002183   8.8566   6.0630  1.00276739 38288
METEOSAT-10 (MSG-3)     
1 38552U 12035B   22173.31450372  .00000057  00000+0  00000+0 0  9994
2 38552   1.5299  41.5022 0000461  86.9318 264.4273  1.00272463 36250
METOP-B                 
1 38771U 12049A   22173.56862028  .00000068  00000+0  51232-4 0  9994
2 38771  98.6952 233.2458 0001796  76.1354  61.0342 14.21490841506453
FENGYUN 3C              
1 39260U 13052A   22173.49942724  .00000055  00000+0  48809-4 0  9999
2 39260  98.4529 201.3581 0009812 260.1005  99.9064 14.15927593452636
METEOR-M 2              
1 40069U 14037A   22173.46444706 -.00000011  00000+0  14085-4 0  9998
2 40069  98.4302 191.0398 0004909 319.1873  40.8940 14.20711171412571
